[{"OBJECT_NAME":"OBJECT B","OBJECT_ID":"2025-313B","EPOCH":"2026-03-09T22:01:30.454176","MEAN_MOTION":14.73613198,"ECCENTRICITY":0.02934893,"INCLINATION":97.5206,"RA_OF_ASC_NODE":141.38,"ARG_OF_PERICENTER":298.1139,"MEAN_ANOMALY":59.0692,"EPHEMERIS_TYPE":0,"CLASSIFICATION_TYPE":"U","NORAD_CAT_ID":67249,"ELEMENT_SET_NO":999,"REV_AT_EPOCH":1051,"BSTAR":0.00024043091,"MEAN_MOTION_DOT":3.075e-5,"MEAN_MOTION_DDOT":0},{"OBJECT_NAME":"DELTA 1 R\/B","OBJECT_ID":"1975-027B","EPOCH":"2026-03-09T16:59:39.420960","MEAN_MOTION":14.25568986,"ECCENTRICITY":0.00542927,"INCLINATION":114.9733,"RA_OF_ASC_NODE":17.3645,"ARG_OF_PERICENTER":284.9963,"MEAN_ANOMALY":74.5114,"EPHEMERIS_TYPE":0,"CLASSIFICATION_TYPE":"U","NORAD_CAT_ID":7735,"ELEMENT_SET_NO":999,"REV_AT_EPOCH":64429,"BSTAR":0.00011471013,"MEAN_MOTION_DOT":9.8e-7,"MEAN_MOTION_DDOT":0}]
